IRIDIUM 155             
1 43573U 18061E   25173.03577030  .00000081  00000+0  21846-4 0  9994
2 43573  86.3980 207.1470 0002548  86.3765 273.7722 14.34218051361743
IRIDIUM 154             
1 43574U 18061F   25173.08651029  .00000164  00000+0  51460-4 0  9998
2 43574  86.3985 207.2413 0002322  90.9823 269.1639 14.34218402361794
IRIDIUM 163             
1 43575U 18061G   25172.50933489  .00000127  00000+0  38423-4 0  9991
2 43575  86.3983 207.4093 0002468  93.3450 266.8028 14.34218224361689
IRIDIUM 156             
1 43576U 18061H   25172.83280679  .00000149  00000+0  46123-4 0  9994
2 43576  86.3982 207.2810 0002468  83.3361 276.8116 14.34218507361722
IRIDIUM 164             
1 43577U 18061J   25172.81377874  .00000138  00000+0  42294-4 0  9990
2 43577  86.3983 207.3236 0002091  89.5272 270.6163 14.34217929361763
IRIDIUM 159             
1 43578U 18061K   25172.85183446  .00000058  00000+0  13782-4 0  9996
2 43578  86.3982 207.2520 0002202  96.3810 263.7637 14.34217850361735
IRIDIUM 180             
1 43922U 19002A   25172.85133082  .00000065  00000+0  16227-4 0  9991
2 43922  86.3985 144.2333 0002387  88.0474 272.0995 14.34217911337383
IRIDIUM 176             
1 43923U 19002B   25173.40591857  .00000568  00000+0  86207-4 0  9995
2 43923  86.6115 143.9944 0003260  85.4715 274.6875 14.72249686346310
IRIDIUM 168             
1 43924U 19002C   25172.35660728  .00000208  00000+0  67086-4 0  9998
2 43924  86.3987 144.5070 0002330  87.0514 273.0949 14.34218917337253
IRIDIUM 173             
1 43925U 19002D   25173.39045128  .00000042  00000+0  79902-5 0  9992
2 43925  86.3985 143.9791 0002473  87.3169 272.8310 14.34217861337393
IRIDIUM 169             
1 43926U 19002E   25172.74469030  .00000143  00000+0  40087-4 0  9996
2 43926  86.4248 175.8300 0003713  78.1940 281.9675 14.38609062338400
IRIDIUM 172             
1 43927U 19002F   25173.38410806  .00000156  00000+0  48597-4 0  9993
2 43927  86.3984 143.9884 0002346  93.2879 266.8585 14.34218488337393
IRIDIUM 175             
1 43928U 19002G   25172.85714206  .00000690  00000+0  10551-3 0  9997
2 43928  86.1501  96.4743 0002621  62.1647 297.9835 14.72249586346227
IRIDIUM 171             
1 43929U 19002H   25172.87669988  .00000096  00000+0  27121-4 0  9998
2 43929  86.3995 144.4667 0002073  79.3777 280.7652 14.34218364337316
IRIDIUM 170             
1 43930U 19002J   25172.86836632  .00000669  00000+0  10213-3 0  9990
2 43930  86.6109 144.2236 0002846  82.3473 277.8067 14.72251108346247
IRIDIUM 167             
1 43931U 19002K   25172.87035804  .00000089  00000+0  24649-4 0  9999
2 43931  86.3986 144.2223 0002315  74.9319 285.2133 14.34218110337310
IRIDIUM 181             
1 56726U 23068S   25172.94026502  .00000284  00000+0  78342-4 0  9991
2 56726  86.4522 207.2489 0001801  87.0053 273.1354 14.43310404110472
IRIDIUM 177             
1 56727U 23068T   25173.34402732  .00000867  00000+0  11064-3 0  9994
2 56727  86.1974 139.6815 0002519  84.7207 275.4302 14.80228534113131
IRIDIUM 174             
1 56728U 23068U   25173.33177512  .00000668  00000+0  10206-3 0  9995
2 56728  86.6116 144.1406 0002974  96.5370 263.6186 14.72249830113074
IRIDIUM 178             
1 56729U 23068V   25172.72470076  .00000386  00000+0  47286-4 0  9995
2 56729  86.6573 175.9395 0002393  95.1113 265.0381 14.80233169113043
IRIDIUM 179             
1 56730U 23068W   25172.78693798  .00000383  00000+0  46940-4 0  9994
2 56730  86.6809 183.7974 0002653  88.9695 271.1831 14.80238636113054
